[{"OBJECT_NAME":"LEMUR-2-DEMBITZ","OBJECT_ID":"2017-042T","EPOCH":"2026-03-09T11:23:53.232288","MEAN_MOTION":15.26947128,"ECCENTRICITY":0.00069617,"INCLINATION":97.3807,"RA_OF_ASC_NODE":250.9241,"ARG_OF_PERICENTER":17.1421,"MEAN_ANOMALY":343.0051,"EPHEMERIS_TYPE":0,"CLASSIFICATION_TYPE":"U","NORAD_CAT_ID":42842,"ELEMENT_SET_NO":999,"REV_AT_EPOCH":47311,"BSTAR":0.00076560825,"MEAN_MOTION_DOT":0.00020231,"MEAN_MOTION_DDOT":0},{"OBJECT_NAME":"STARLINK-32694","OBJECT_ID":"2025-003H","EPOCH":"2026-03-09T22:39:28.055808","MEAN_MOTION":15.27608117,"ECCENTRICITY":0.00013826,"INCLINATION":42.9977,"RA_OF_ASC_NODE":287.2605,"ARG_OF_PERICENTER":276.9761,"MEAN_ANOMALY":83.0933,"EPHEMERIS_TYPE":0,"CLASSIFICATION_TYPE":"U","NORAD_CAT_ID":62494,"ELEMENT_SET_NO":999,"REV_AT_EPOCH":6671,"BSTAR":0.0015065164,"MEAN_MOTION_DOT":0.00041463,"MEAN_MOTION_DDOT":0}]
